[{"OBJECT_NAME":"ARIRANG-3 (KOMPSAT-3)","OBJECT_ID":"2012-025B","EPOCH":"2026-03-09T22:36:31.984704","MEAN_MOTION":14.62103113,"ECCENTRICITY":0.00067165,"INCLINATION":98.1064,"RA_OF_ASC_NODE":28.1838,"ARG_OF_PERICENTER":70.2114,"MEAN_ANOMALY":289.9811,"EPHEMERIS_TYPE":0,"CLASSIFICATION_TYPE":"U","NORAD_CAT_ID":38338,"ELEMENT_SET_NO":999,"REV_AT_EPOCH":73684,"BSTAR":0.00016351481,"MEAN_MOTION_DOT":7.75e-6,"MEAN_MOTION_DDOT":0},{"OBJECT_NAME":"UNKNOWN","OBJECT_ID":"","EPOCH":"2026-03-06T05:38:15.988992","MEAN_MOTION":13.70458541,"ECCENTRICITY":0.0421095,"INCLINATION":66.5904,"RA_OF_ASC_NODE":245.0477,"ARG_OF_PERICENTER":1.2559,"MEAN_ANOMALY":358.9462,"EPHEMERIS_TYPE":0,"CLASSIFICATION_TYPE":"U","NORAD_CAT_ID":87320,"ELEMENT_SET_NO":999,"REV_AT_EPOCH":60518,"BSTAR":0.00084097,"MEAN_MOTION_DOT":1.322e-5,"MEAN_MOTION_DDOT":0}]
